NORAD_CAT_ID,OBJECT_NAME,OBJECT_TYPE,EPOCH,MEAN_MOTION,ECCENTRICITY,INCLINATION,RA_OF_ASC_NODE,ARG_OF_PERICENTER,MEAN_ANOMALY,BSTAR,MEAN_MOTION_DOT,MEAN_MOTION_DDOT,TLE_LINE0,TLE_LINE1,TLE_LINE2,SEMIMAJOR_AXIS,PERIOD,APOGEE,PERIGEE,DECAYED
55423.0,STARLINK-5068,PAYLOAD,2024-02-10 20:30:22,14.98337722,0.0002966,70.0009,195.3139,265.3829,94.6992,4.1101e-05,3.98e-06,0.0,0 STARLINK-5068,1 55423U 23014AJ  24041.85442880  .00000398  00000-0  41101-4 0  9990,2 55423  70.0009 195.3139 0002966 265.3829  94.6992 14.98337722 58048,6950.169,96.107,574.095,569.973,0.0
55423.0,STARLINK-5068,PAYLOAD,2024-02-11 12:31:43,14.98328886,0.0002959,70.001,193.6309,265.4679,94.6142,4.6625e-05,4.63e-06,0.0,0 STARLINK-5068,1 55423U 23014AJ  24042.52203272  .00000463  00000-0  46625-4 0  9994,2 55423  70.0010 193.6309 0002959 265.4679  94.6142 14.98328886 57201,6950.196,96.107,574.118,570.005,0.0
55423.0,STARLINK-5068,PAYLOAD,2024-02-11 14:07:51,14.98329109,0.0002954,70.0009,193.4626,265.7648,94.3174,4.8045e-05,4.8e-06,0.0,0 STARLINK-5068,1 55423U 23014AJ  24042.58879258  .00000480  00000-0  48045-4 0  9990,2 55423  70.0009 193.4626 0002954 265.7648  94.3174 14.98329109 58159,6950.196,96.107,574.114,570.008,0.0
55423.0,STARLINK-5068,PAYLOAD,2024-02-11 20:32:23,14.98333183,0.0002911,70.0011,192.7895,266.106,93.9766,8.861e-05,9.65e-06,0.0,0 STARLINK-5068,1 55423U 23014AJ  24042.85582854  .00000965  00000-0  88610-4 0  9993,2 55423  70.0011 192.7895 0002911 266.1060  93.9766 14.98333183 58191,6950.183,96.107,574.071,570.025,0.0
55423.0,STARLINK-5068,PAYLOAD,2024-02-12 12:33:44,14.98329526,0.0002722,70.0017,191.1077,260.7211,99.364,-5.785e-05,-7.83e-06,0.0,0 STARLINK-5068,1 55423U 23014AJ  24043.52343385 -.00000783  00000-0 -57850-4 0  9994,2 55423  70.0017 191.1077 0002722 260.7211  99.3640 14.98329526 57354,6950.194,96.107,573.951,570.168,0.0
55423.0,STARLINK-5068,PAYLOAD,2024-02-12 18:58:17,14.98326616,0.0002755,70.0017,190.4341,260.8299,99.2549,-8.043e-05,-1.052e-05,0.0,0 STARLINK-5068,1 55423U 23014AJ  24043.79047661 -.00001052  00000-0 -80430-4 0  9991,2 55423  70.0017 190.4341 0002755 260.8299  99.2549 14.98326616 58336,6950.203,96.107,573.983,570.154,0.0
55423.0,STARLINK-5068,PAYLOAD,2024-02-13 02:58:57,14.98315606,0.0002701,70.0016,189.5928,265.7473,94.3378,0.00013961,1.573e-05,0.0,0 STARLINK-5068,1 55423U 23014AJ  24044.12427934  .00001573  00000-0  13961-3 0  9994,2 55423  70.0016 189.5928 0002701 265.7473  94.3378 14.98315606 57448,6950.237,96.108,573.98,570.225,0.0
55423.0,STARLINK-5068,PAYLOAD,2024-02-13 14:11:54,14.98320122,0.0002928,70.0014,188.415,271.7523,88.3301,-5.8467e-05,-7.9e-06,0.0,0 STARLINK-5068,1 55423U 23014AJ  24044.59160206 -.00000790  00000-0 -58467-4 0  9994,2 55423  70.0014 188.4150 0002928 271.7523  88.3301 14.98320122 58455,6950.223,96.108,574.123,570.053,0.0
55423.0,STARLINK-5068,PAYLOAD,2024-02-13 19:00:18,14.9832446,0.0003099,70.0009,187.9091,272.5368,87.5437,-4.0737e-05,-5.79e-06,0.0,0 STARLINK-5068,1 55423U 23014AJ  24044.79187944 -.00000579  00000-0 -40737-4 0  9990,2 55423  70.0009 187.9091 0003099 272.5368  87.5437 14.98324460 58486,6950.21,96.107,574.229,569.921,0.0
55423.0,STARLINK-5068,PAYLOAD,2024-02-14 03:00:57,14.98346732,0.0003173,70.0006,187.0664,264.9604,95.1193,-0.00029895,-3.66e-05,0.0,0 STARLINK-5068,1 55423U 23014AJ  24045.12567010 -.00003660  00000-0 -29895-3 0  9999,2 55423  70.0006 187.0664 0003173 264.9604  95.1193 14.98346732 57592,6950.141,96.106,574.211,569.801,0.0
55423.0,STARLINK-5068,PAYLOAD,2024-02-14 11:01:38,14.98331328,0.000306,70.0005,186.2247,268.6205,91.4603,9.5176e-05,1.043e-05,0.0,0 STARLINK-5068,1 55423U 23014AJ  24045.45947130  .00001043  00000-0  95176-4 0  9997,2 55423  70.0005 186.2247 0003060 268.6205  91.4603 14.98331328 57648,6950.189,96.107,574.181,569.927,0.0
55423.0,STARLINK-5068,PAYLOAD,2024-02-14 14:13:54,14.98331716,0.0002983,70.0005,185.888,266.4795,93.6023,0.00011735,1.308e-05,0.0,0 STARLINK-5068,1 55423U 23014AJ  24045.59299029  .00001308  00000-0  11735-3 0  9991,2 55423  70.0005 185.8880 0002983 266.4795  93.6023 14.98331716 58607,6950.188,96.107,574.126,569.979,0.0
55423.0,STARLINK-5068,PAYLOAD,2024-02-14 17:26:10,14.98329694,0.0003074,70.0005,185.5509,268.2348,91.8459,0.00027053,3.136e-05,0.0,0 STARLINK-5068,1 55423U 23014AJ  24045.72650720  .00003136  00000-0  27053-3 0  9996,2 55423  70.0005 185.5509 0003074 268.2348  91.8459 14.98329694 58625,6950.194,96.107,574.195,569.922,0.0
55423.0,STARLINK-5068,PAYLOAD,2024-02-15 11:03:39,14.98322041,0.0003051,70.0,183.6987,270.1156,89.9654,4.6807e-05,4.65e-06,0.0,0 STARLINK-5068,1 55423U 23014AJ  24046.46087717  .00000465  00000-0  46807-4 0  9999,2 55423  70.0000 183.6987 0003051 270.1156  89.9654 14.98322041 57794,6950.218,96.108,574.203,569.962,0.0
55423.0,STARLINK-5068,PAYLOAD,2024-02-15 14:15:55,14.98322536,0.0003023,69.9999,183.3627,270.2204,89.8608,4.6494e-05,4.62e-06,0.0,0 STARLINK-5068,1 55423U 23014AJ  24046.59439737  .00000462  00000-0  46494-4 0  9995,2 55423  69.9999 183.3627 0003023 270.2204  89.8608 14.98322536 58754,6950.216,96.107,574.182,569.98,0.0
55423.0,STARLINK-5068,PAYLOAD,2024-02-15 19:04:19,14.98327387,0.0003118,70.0002,182.859,270.9544,89.1257,1.5367e-05,9e-07,0.0,0 STARLINK-5068,1 55423U 23014AJ  24046.79467581  .00000090  00000-0  15367-4 0  9997,2 55423  70.0002 182.8590 0003118 270.9544  89.1257 14.98327387 58789,6950.201,96.107,574.233,569.899,0.0
55423.0,STARLINK-5068,PAYLOAD,2024-02-16 12:41:48,14.98334237,0.0003133,70.0005,181.0075,273.219,86.8611,-4.5158e-06,-1.47e-06,0.0,0 STARLINK-5068,1 55423U 23014AJ  24047.52903166 -.00000147  00000-0 -45158-5 0  9990,2 55423  70.0005 181.0075 0003133 273.2190  86.8611 14.98334237 57959,6950.18,96.107,574.222,569.867,0.0
55423.0,STARLINK-5068,PAYLOAD,2024-02-16 14:17:56,14.98335169,0.0003082,70.0006,180.8383,274.0894,85.9912,-2.5105e-05,-3.93e-06,0.0,0 STARLINK-5068,1 55423U 23014AJ  24047.59579136 -.00000393  00000-0 -25105-4 0  9995,2 55423  70.0006 180.8383 0003082 274.0894  85.9912 14.98335169 58907,6950.177,96.107,574.184,569.9,0.0
55423.0,STARLINK-5068,PAYLOAD,2024-02-16 19:06:19,14.98343891,0.0003093,70.0005,180.3336,274.0114,86.0692,1.9902e-05,1.45e-06,0.0,0 STARLINK-5068,1 55423U 23014AJ  24047.79606337  .00000145  00000-0  19902-4 0  9992,2 55423  70.0005 180.3336 0003093 274.0114  86.0692 14.98343891 57992,6950.15,96.106,574.165,569.865,0.0
55423.0,STARLINK-5068,PAYLOAD,2024-02-17 11:07:41,14.98320711,0.0002809,70.0018,178.6518,266.0376,94.0462,6.0632e-05,6.3e-06,0.0,0 STARLINK-5068,1 55423U 23014AJ  24048.46367513  .00000630  00000-0  60632-4 0  9992,2 55423  70.0018 178.6518 0002809 266.0376  94.0462 14.98320711 58095,6950.222,96.108,574.039,570.134,0.0
55423.0,STARLINK-5068,PAYLOAD,2024-02-17 14:19:57,14.98318657,0.000276,70.0021,178.3153,265.7014,94.383,9.3882e-05,1.027e-05,0.0,0 STARLINK-5068,1 55423U 23014AJ  24048.59719658  .00001027  00000-0  93882-4 0  9991,2 55423  70.0021 178.3153 0002760 265.7014  94.3830 14.98318657 59057,6950.228,96.108,574.011,570.175,0.0
55423.0,STARLINK-5068,PAYLOAD,2024-02-17 17:32:14,14.98320103,0.0002945,70.002,177.9789,272.2864,87.7958,3.2473e-05,2.94e-06,0.0,0 STARLINK-5068,1 55423U 23014AJ  24048.73071794  .00000294  00000-0  32473-4 0  9993,2 55423  70.0020 177.9789 0002945 272.2864  87.7958 14.98320103 59075,6950.223,96.108,574.135,570.042,0.0
55423.0,STARLINK-5068,PAYLOAD,2024-02-18 01:32:53,14.98335946,0.0002707,70.0023,177.1374,267.1346,92.9503,-0.00014033,-1.767e-05,0.0,0 STARLINK-5068,1 55423U 23014AJ  24049.06451334 -.00001767  00000-0 -14033-3 0  9991,2 55423  70.0023 177.1374 0002707 267.1346  92.9503 14.98335946 58180,6950.175,96.107,573.921,570.158,0.0
55423.0,STARLINK-5068,PAYLOAD,2024-02-18 11:09:41,14.98341644,0.0003518,69.9997,176.1242,275.9445,84.1313,4.2086e-05,4.09e-06,0.0,0 STARLINK-5068,1 55423U 23014AJ  24049.46506209  .00000409  00000-0  42086-4 0  9997,2 55423  69.9997 176.1242 0003518 275.9445  84.1313 14.98341644 58249,6950.157,96.106,574.467,569.577,0.0
55423.0,STARLINK-5068,PAYLOAD,2024-02-18 14:21:56,14.98347908,0.000285,70.0006,175.789,255.9193,104.1649,0.00011237,1.249e-05,0.0,0 STARLINK-5068,1 55423U 23014AJ  24049.59857435  .00001249  00000-0  11237-3 0  9997,2 55423  70.0006 175.7890 0002850 255.9193 104.1649 14.98347908 59204,6950.138,96.106,573.983,570.022,0.0
55423.0,STARLINK-5068,PAYLOAD,2024-02-18 17:34:12,14.98350114,0.0003162,70.0008,175.4523,270.7039,89.3758,0.00015444,1.751e-05,0.0,0 STARLINK-5068,1 55423U 23014AJ  24049.73209080  .00001751  00000-0  15444-3 0  9992,2 55423  70.0008 175.4523 0003162 270.7039  89.3758 14.98350114 58282,6950.131,96.106,574.193,569.798,0.0
55423.0,STARLINK-5068,PAYLOAD,2024-02-19 01:34:53,14.98338882,0.0002723,70.0021,174.6114,272.9151,87.1697,-1.3856e-05,-2.58e-06,0.0,0 STARLINK-5068,1 55423U 23014AJ  24050.06590100 -.00000258  00000-0 -13856-4 0  9995,2 55423  70.0021 174.6114 0002723 272.9151  87.1697 14.98338882 58337,6950.165,96.106,573.923,570.138,0.0
55423.0,STARLINK-5068,PAYLOAD,2024-02-19 09:35:36,14.9830974,0.0003159,70.0004,173.7689,269.8605,90.2192,-0.00020963,-2.592e-05,0.0,0 STARLINK-5068,1 55423U 23014AJ  24050.39972451 -.00002592  00000-0 -20963-3 0  9993,2 55423  70.0004 173.7689 0003159 269.8605  90.2192 14.98309740 58389,6950.256,96.108,574.316,569.925,0.0
55423.0,STARLINK-5068,PAYLOAD,2024-02-19 14:24:00,14.98314775,0.0003258,69.9999,173.2636,269.8216,90.2569,-0.00017105,-2.133e-05,0.0,0 STARLINK-5068,1 55423U 23014AJ  24050.60000192 -.00002133  00000-0 -17105-3 0  9996,2 55423  69.9999 173.2636 0003258 269.8216  90.2569 14.98314775 59354,6950.24,96.108,574.369,569.841,0.0
55423.0,STARLINK-5068,PAYLOAD,2024-02-19 17:36:16,14.98314994,0.0003054,70.0006,172.9277,269.9932,90.0877,-0.00014019,-1.765e-05,0.0,0 STARLINK-5068,1 55423U 23014AJ  24050.73352231 -.00001765  00000-0 -14019-3 0  9995,2 55423  70.0006 172.9277 0003054 269.9932  90.0877 14.98314994 58434,6950.239,96.108,574.227,569.982,0.0
